[{"OBJECT_NAME":"BUFENG 1B","OBJECT_ID":"2019-032B","EPOCH":"2026-03-09T19:57:27.457920","MEAN_MOTION":15.25619535,"ECCENTRICITY":0.00242037,"INCLINATION":44.9701,"RA_OF_ASC_NODE":192.0248,"ARG_OF_PERICENTER":123.8847,"MEAN_ANOMALY":236.4342,"EPHEMERIS_TYPE":0,"CLASSIFICATION_TYPE":"U","NORAD_CAT_ID":44311,"ELEMENT_SET_NO":999,"REV_AT_EPOCH":37256,"BSTAR":0.00059375374,"MEAN_MOTION_DOT":0.00015236,"MEAN_MOTION_DDOT":0},{"OBJECT_NAME":"STARLINK-31057","OBJECT_ID":"2023-192Q","EPOCH":"2026-03-09T08:54:12.938112","MEAN_MOTION":15.30188937,"ECCENTRICITY":0.00013201,"INCLINATION":53.1617,"RA_OF_ASC_NODE":64.4246,"ARG_OF_PERICENTER":105.807,"MEAN_ANOMALY":254.3077,"EPHEMERIS_TYPE":0,"CLASSIFICATION_TYPE":"U","NORAD_CAT_ID":58545,"ELEMENT_SET_NO":999,"REV_AT_EPOCH":12593,"BSTAR":5.417698e-6,"MEAN_MOTION_DOT":-1.99e-6,"MEAN_MOTION_DDOT":0}]
